TIANMU-1 14             
1 58648U 23205D   26163.32256950  .00006042  00000+0  23193-3 0  9995
2 58648  97.3399 184.1699 0007481   3.8142 356.3153 15.26809082136769
TIANMU-1 19             
1 58660U 23208A   26163.25611056  .00008587  00000+0  28477-3 0  9992
2 58660  97.4496 279.5310 0004196 349.8263  10.2893 15.31501724136572
TIANMU-1 20             
1 58661U 23208B   26163.29773653  .00007960  00000+0  25449-3 0  9999
2 58661  97.4439 280.2031 0006436 353.2945   6.8209 15.32693035136675
TIANMU-1 21             
1 58662U 23208C   26163.29342006  .00009956  00000+0  29547-3 0  9994
2 58662  97.4497 282.8582 0006331 344.4767  15.6281 15.34992739136816
TIANMU-1 22             
1 58663U 23208D   26163.30161616  .00007503  00000+0  25314-3 0  9997
2 58663  97.4492 279.5168 0003701  21.3778 338.7616 15.30991667136586
TIANMU-1 15             
1 58700U 24004A   26163.31495047  .00005894  00000+0  22526-3 0  9996
2 58700  97.4666 349.5050 0007188  19.2185 340.9324 15.26975469135037
TIANMU-1 16             
1 58701U 24004B   26163.30330899  .00005742  00000+0  22140-3 0  9993
2 58701  97.4612 348.7357 0006321  24.1936 335.9598 15.26700446135035
TIANMU-1 17             
1 58702U 24004C   26163.28875993  .00005479  00000+0  21140-3 0  9996
2 58702  97.4642 349.2044 0006023  30.1648 329.9936 15.26699226135025
TIANMU-1 18             
1 58703U 24004D   26163.26597578  .00005711  00000+0  21857-3 0  9999
2 58703  97.4659 349.4340 0004522  30.8438 329.3065 15.26957418135028
INSAT-3DS               
1 58990U 24033A   26163.06720015 -.00000140  00000+0  00000+0 0  9996
2 58990   0.0402 129.6749 0001061 305.5848 291.4317  1.00272117 47018
METEOR-M2 4             
1 59051U 24039A   26163.25948951  .00000006  00000+0  22164-4 0  9993
2 59051  98.7009 122.6195 0007005 174.8696 185.2555 14.22429105118566
GOES 19                 
1 60133U 24119A   26163.24989264 -.00000233  00000+0  00000+0 0  9999
2 60133   0.0336 152.4267 0000487  18.6402 104.2914  1.00270525  6913
MTG-S1                  
1 64723U 25143A   26163.26410604 -.00000016  00000+0  00000+0 0  9994
2 64723   0.6078 337.8047 0000959  16.4107 357.9845  1.00271617  3378
METOP-SGA1              
1 65159U 25172A   26163.14123975  .00000029  00000+0  33110-4 0  9995
2 65159  98.6644 222.9609 0000936  89.6935 270.4350 14.21508973 43078
FENGYUN 3H              
1 65815U 25219A   26163.24935252  .00000031  00000+0  35123-4 0  9995
2 65815  98.6768 104.1145 0001617  80.1181 280.0178 14.19919655 36680
